ALOS-4 (DAICHI-4)       
1 60182U 24123A   24266.18268840  .00003942  00000+0  53432-3 0  9993
2 60182  97.9211   1.4465 0001455  96.3985 263.7392 14.79477855 12285
